331P/Gibbs,e,9.7401,216.7504,185.1422,3.003989,0.1893026,0.04151548,259.2097,07/08.0/2024,2000,g 12.0,4.0
# From MPEC 2016-K18
332P/Ikeya-Murakami,e,9.3831,3.7578,152.2891,3.086693,0.1817456,0.48952312,191.7003,07/08.0/2024,2000,g 18.0,4.0
# From MPEC 2016-K18
332P-A/Ikeya-Murakami,e,9.3835,152.3099,3.7373,3.086685,0.1817463,0.48952828,191.6996,07/08.0/2024,2000,g  9.0,4.0
# From MPEC 2016-EI8
332P-B/Ikeya-Murakami,e,9.3805,3.8028,152.3711,3.082329,0.1821317,0.48970701,359.9699,03/17.0/2016,2000,g 19.0,4.0
# From MPEC 2016-K18
332P-C/Ikeya-Murakami,e,9.3826,152.3012,3.7377,3.086651,0.1817493,0.48953384,191.7169,07/08.0/2024,2000,g 16.5,4.0
# From MPEC 2016-ED0
332P-D/Ikeya-Murakami,e,9.3761,3.7923,152.4393,3.081138,0.1822373,0.48977814,359.9486,03/17.0/2016,2000,g 19.0,4.0
# From MPEC 2016-ED0
332P-E/Ikeya-Murakami,e,9.3774,3.8228,152.2825,3.079877,0.1823493,0.48922008,359.9889,03/17.0/2016,2000,g 21.0,4.0
# From MPEC 2016-ED0
332P-F/Ikeya-Murakami,e,9.5293,3.4757,152.8203,3.163214,0.1751908,0.49918860,359.8501,03/17.0/2016,2000,g 21.0,4.0
# From MPEC 2016-ED0
332P-G/Ikeya-Murakami,e,9.2523,3.6955,154.4000,3.050519,0.1849880,0.49200362,359.9006,03/19.0/2016,2000,g 19.0,4.0
# From MPC100285
332P-H/Ikeya-Murakami,e,9.3831,152.3018,3.7374,3.086833,0.1817333,0.48956953,191.6347,07/08.0/2024,2000,g 19.0,4.0
# From MPEC 2016-ED0
332P-I/Ikeya-Murakami,e,9.3791,3.8048,152.3297,3.081767,0.1821815,0.48955490,359.9360,03/17.0/2016,2000,g 20.5,2.0
# From MPEC 2016-EI8
332P-J/Ikeya-Murakami,e,9.4296,3.6729,152.7712,3.115165,0.1792596,0.49429435,359.8613,03/17.0/2016,2000,g 20.5,2.0
# From MPEC 2024-MB8
333P/LINEAR,e,132.0217,115.7053,26.0168,4.220316,0.1136807,0.73628418,343.5959,07/08.0/2024,2000,g 15.0,4.0
# From MPEC 2023-J29
334P/NEAT,e,20.3731,90.4596,90.0363,6.828728,0.0552325,0.35124160,143.1545,07/08.0/2024,2000,g 10.5,4.0
# From MPEC 2023-M14
335P/Gibbs,e,7.2946,330.8113,162.3016,3.577645,0.1456492,0.54656743,101.3498,07/08.0/2024,2000,g 16.8,4.0
# From MPC105244
336P/McNaught,e,17.8285,298.2107,308.6282,5.037891,0.0871628,0.44416024,237.1266,07/08.0/2024,2000,g 13.5,4.0
# From MPEC 2024-A43
337P/WISE,e,15.6303,104.6875,162.6692,3.296952,0.1646400,0.49928868,121.0299,07/08.0/2024,2000,g 17.0,4.0
# From MPEC 2024-N80
338P/McNaught,e,25.3864,9.7934,4.5779,3.892093,0.1283599,0.41218765,356.6615,07/08.0/2024,2000,g 12.0,4.0
# From MPC101101
339P/Gibbs,e,5.7332,27.4737,172.6889,3.699761,0.1384980,0.63564774,43.2217,07/08.0/2024,2000,g 17.0,4.0
# From MPC133426
340P/Boattini,e,2.0786,291.6637,36.0604,4.248561,0.1125489,0.28028805,313.0436,07/08.0/2024,2000,g 14.3,4.0
# From MPEC 2023-J29
341P/Gibbs,e,3.7964,29.9608,312.3393,4.287331,0.1110257,0.41537771,327.9532,07/08.0/2024,2000,g 12.5,4.0
# From MPC101101
342P/SOHO,e,11.6946,73.3217,27.6340,3.041093,0.1858487,0.98293555,0.0000,02/07.5344/2027,2000,g  9.0,4.0
# From MPEC 2023-J29
343P/NEAT-LONEOS,e,5.5969,257.0588,137.5894,5.457478,0.0773065,0.58518904,209.6825,07/08.0/2024,2000,g 14.0,4.0
# From MPEC 2023-J29
344P/Read,e,3.4990,273.1006,140.5683,4.857171,0.0920723,0.42378523,257.6609,07/08.0/2024,2000,g 13.0,4.0
# From MPEC 2022-K19
345P/LINEAR,e,2.7280,154.5950,196.6787,4.031456,0.1217618,0.22120122,353.4223,07/08.0/2024,2000,g 12.0,4.0
# From MPEC 2022-K19
346P/Catalina,e,22.2178,102.4559,336.0251,4.470190,0.1042834,0.50386937,281.3523,07/08.0/2024,2000,g 14.0,4.0
# From MPEC 2024-M41
347P/PANSTARRS,e,11.7643,260.9882,98.2955,3.605055,0.1439913,0.38682771,51.0192,07/08.0/2024,2000,g 15.0,4.0
# From MPEC 2022-ED3
348P/PANSTARRS,e,17.7384,312.9264,135.7244,3.151884,0.1761362,0.30740043,154.2953,07/08.0/2024,2000,g 14.0,4.0
# From MPEC 2024-LE0
349P/Lemmon,e,5.4885,331.7485,255.7873,3.578553,0.1455938,0.29857255,6.1012,07/08.0/2024,2000,g 14.0,4.0
# From MPC111775
350P/McNaught,e,7.3639,65.2932,139.9770,4.081314,0.1195375,0.09446599,286.2405,07/08.0/2024,2000,g 14.0,4.0
# From MPC105244
351P/Wiegert-PANSTARRS,e,12.7751,352.6786,283.3148,4.440697,0.1053240,0.29476725,332.4677,07/08.0/2024,2000,g 12.5,4.0
# From MPEC 2023-J29
352P/Skiff,e,21.0116,28.0162,309.4046,6.652817,0.0574375,0.61669297,147.8449,07/08.0/2024,2000,g 13.2,4.0
# From MPEC 2020-AA5
353P/McNaught,e,28.4167,121.5247,230.4913,4.170666,0.1157167,0.46993707,276.2957,07/08.0/2024,2000,g 14.5,4.0
# From MPEC 2024-EF7
354P/LINEAR,e,5.2508,320.0704,132.8231,2.289900,0.2844326,0.12449425,76.2344,07/08.0/2024,2000,g 15.5,4.0
# From MPEC 2023-CD7
355P/LINEAR-NEAT,e,11.0468,51.4339,336.3184,3.470028,0.1524771,0.50815869,14.8841,07/08.0/2024,2000,g 15.5,2.0
# From MPEC 2022-F14
356P/WISE,e,9.6403,160.8072,226.1516,4.154120,0.1164087,0.35605086,278.0404,07/08.0/2024,2000,g 14.0,4.0
# From MPC114609
357P/Hill,e,6.3143,44.5792,1.4591,4.455917,0.1047848,0.43613471,233.3975,07/08.0/2024,2000,g 15.5,4.0
# From MPEC 2024-EF7
358P/PANSTARRS,e,11.0658,85.6655,299.5350,3.148558,0.1764154,0.23966674,42.4804,07/08.0/2024,2000,g 18.0,4.0
# From MPC110086
359P/LONEOS,e,10.2633,149.7679,200.2968,4.641416,0.0985663,0.32349505,247.4254,07/08.0/2024,2000,g 13.5,4.0
# From MPC108599
360P/WISE,e,24.1087,2.2121,354.2425,3.696914,0.1386581,0.49913027,347.8329,07/08.0/2024,2000,g 19.5,6.0
# From MPEC 2023-CD7
361P/Spacewatch,e,13.9016,203.2519,219.0696,4.933476,0.0899445,0.43957964,197.3054,07/08.0/2024,2000,g 12.0,4.0
# From MPC114609
363P/Lemmon,e,5.3895,146.6408,340.8663,3.576105,0.1457433,0.51880193,341.3175,07/08.0/2024,2000,g 17.5,4.0
# From MPEC 2024-M41
364P/PANSTARRS,e,12.1083,46.1429,212.2123,2.888748,0.2007426,0.72158069,84.4690,07/08.0/2024,2000,g 17.0,2.0
# From MPC111775
365P/PANSTARRS,e,9.8498,86.6565,67.4256,3.156449,0.1757543,0.58144617,47.9102,07/08.0/2024,2000,g 17.0,4.0
# From MPC114610
366P/Spacewatch,e,8.8569,70.7231,153.0156,3.498877,0.1505952,0.34838318,328.8333,07/08.0/2024,2000,g 15.0,4.0
# From MPC112395
367P/Catalina,e,8.4597,58.6611,172.7172,3.510529,0.1498460,0.27991178,331.8812,07/08.0/2024,2000,g 17.5,2.0
# From MPC114610
368P/NEAT,e,15.4818,257.8621,118.9653,5.532989,0.0757294,0.62624143,160.6990,07/08.0/2024,2000,g 14.0,4.0
# From MPC114610
369P/Hill,e,10.3223,47.2965,13.1988,4.379615,0.1075351,0.55592707,224.6563,07/08.0/2024,2000,g 15.0,4.0
# From MPEC 2021-F20
370P/NEAT,e,19.4236,55.0816,356.7508,6.437754,0.0603396,0.61549267,133.8042,07/08.0/2024,2000,g 13.0,4.0
# From MPC114610
371P/LINEAR-Skiff,e,17.3851,67.2831,308.5667,4.180473,0.1153097,0.47687566,242.1991,07/08.0/2024,2000,g 16.0,4.0
# From MPEC 2020-K19
372P/McNaught,e,9.5069,27.5516,326.0192,4.511104,0.1028679,0.15169030,214.3582,07/08.0/2024,2000,g 13.5,4.0
# From MPEC 2021-F20
373P/Rinner,e,13.7702,231.9441,221.0686,3.798449,0.1331357,0.39365208,254.9679,07/08.0/2024,2000,g 14.5,4.0
# From MPC114610
374P/Larson,e,10.7644,7.8983,51.5194,4.971044,0.0889268,0.46377143,178.0468,07/08.0/2024,2000,g 14.0,4.0
# From MPEC 2021-F20
375P/Hill,e,17.3673,359.8837,119.3927,5.546615,0.0754505,0.65986026,152.7598,07/08.0/2024,2000,g 16.0,4.0
# From MPEC 2022-K19
376P/LONEOS,e,1.1662,312.8663,285.4095,5.757136,0.0713501,0.51391570,125.4288,07/08.0/2024,2000,g 12.5,4.0
# From MPEC 2022-N37
377P/Scotti,e,9.0250,226.0239,354.8776,6.697139,0.0568683,0.25111133,82.9982,07/08.0/2024,2000,g  9.5,4.0
# From MPEC 2024-D33
378P/McNaught,e,19.1434,93.8182,193.3916,6.292572,0.0624398,0.46496870,85.3155,07/08.0/2024,2000,g 12.0,4.0
# From MPC115889
379P/Spacewatch,e,12.4412,30.5179,184.3647,3.488878,0.1512431,0.34989756,270.1135,07/08.0/2024,2000,g 15.0,4.0
# From MPEC 2023-C45
380P/PANSTARRS,e,8.0178,128.0736,87.9102,4.427481,0.1057959,0.33698682,202.0734,07/08.0/2024,2000,g 12.5,4.0
# From MPEC 2021-J28
381P/LINEAR-Spacewatch,e,28.3577,173.2961,173.8505,7.143683,0.0516203,0.68107513,90.1641,07/08.0/2024,2000,g 17.5,2.0
# From MPEC 2024-MB8
382P/Larson,e,8.2699,171.8253,162.2904,5.941087,0.0680621,0.27053201,65.6026,07/08.0/2024,2000,g  8.0,4.0
# From MPEC 2022-OB6
383P/Christensen,e,12.3203,207.8522,133.7526,3.548151,0.1474691,0.59874658,253.1670,07/08.0/2024,2000,g 18.0,4.0
# From MPEC 2022-OB6
384P/Kowalski,e,7.2833,354.1996,37.7121,2.898240,0.1997573,0.61628752,345.3891,07/08.0/2024,2000,g 19.5,4.0
# From MPEC 2021-F20
385P/Hill,e,16.8269,357.0622,44.4121,4.288784,0.1109693,0.40210061,194.8668,07/08.0/2024,2000,g 13.0,4.0
# From MPEC 2021-L04
386P/PANSTARRS,e,15.2415,134.9169,353.0817,4.050233,0.1209161,0.41713222,171.4887,07/08.0/2024,2000,g 14.5,4.0
# From MPEC 2021-J28
387P/Boattini,e,8.9365,259.2421,162.8312,4.797135,0.0938061,0.73710280,165.5405,07/08.0/2024,2000,g 15.0,4.0
# From MPEC 2021-S45
388P/Gibbs,e,23.8884,37.0286,42.3267,5.240578,0.0821552,0.61930828,148.6325,07/08.0/2024,2000,g 13.0,4.0
# From MPEC 2022-OB6
389P/Siding Spring,e,160.0852,218.8782,249.3757,5.632305,0.0737352,0.70518646,121.7487,07/08.0/2024,2000,g 16.0,4.0
# From MPEC 2024-EF7
390P/Gibbs,e,18.5360,152.2342,232.4963,5.815402,0.0702804,0.70713766,110.2106,07/08.0/2024,2000,g 12.0,4.0
# From MPEC 2021-F20
391P/Kowalski,e,21.2600,124.7859,187.1581,4.688880,0.0970734,0.11870729,223.6438,07/08.0/2024,2000,g  8.0,4.0
# From MPEC 2021-J28
392P/LINEAR,e,4.9310,24.8420,71.9044,6.141006,0.0647657,0.68380613,100.8923,07/08.0/2024,2000,g 14.5,4.0
# From MPEC 2023-T65
393P/Spacewatch-Hill,e,16.7868,36.3941,329.1905,4.797714,0.0937891,0.11973096,160.4955,07/08.0/2024,2000,g 11.0,4.0
# From MPEC 2020-KB7
394P/PANSTARRS,e,8.5293,98.1223,54.4042,4.328147,0.1094589,0.36789523,184.1407,07/08.0/2024,2000,g 16.0,2.4
# From MPEC 2024-MB8
395P/Catalina-NEAT,e,3.5808,221.0313,100.0956,7.190561,0.0511164,0.41421378,44.4002,07/08.0/2024,2000,g 10.0,4.0
# From MPEC 2020-KB7
396P/,e,5.4401,136.6211,8.3079,6.800061,0.0555821,0.41651050,98.7137,07/08.0/2024,2000,g 12.0,4.0
# From MPEC 2022-OB6
397P/Lemmon,e,10.9244,8.2233,14.5664,3.831442,0.1314197,0.40496034,194.3418,07/08.0/2024,2000,g 12.0,4.0
# From MPEC 2021-L04
398P/Boattini,e,11.0234,320.1450,127.5125,3.125354,0.1783838,0.58363467,229.7954,07/08.0/2024,2000,g 15.5,4.0
# From MPEC 2023-XP6
